id,address,battery,ict,lamp,latitude,longitude,postalCode
1,20 TUAS LOOP,1,1,1,1.3201954,103.6367344,637350
2,223 CHOA CHU KANG CENTRAL,1,1,1,1.38161595,103.7446838,680223
3,"313 ORCHARD ROAD, LEVEL 1 DISCOVERY WALK, NEAR MONEY CHANGER",1,1,1,1.301022,103.838542,238895
4,54 CHIN SWEE ROAD,1,1,1,1.2874586,103.841171,160054
5,"68 GEYLANG BAHRU, MAIN ENTRANCE",1,1,1,1.321969,103.869815,330068
6,"888 WOODLANDS DRIVE 50, 888 PLAZA, COMMON CORRIDOR",1,1,1,1.4377962,103.7952803,730888
7,"120 WOODLANDS AVENUE 1, ACE THE PLACE CC, BESIDE CC OFFICE ENTRANCE",1,1,1,1.4274721,103.7921603,739069
8,"378 ALEXANDRA ROAD, BLK 21, LEVEL 1",1,1,1,1.28613175,103.7997703,159964
9,"59 ANCHORVALE ROAD, ANCHORVALE COMMUNITY CLUB, MAIN LOBBY",1,1,1,1.396122,103.886634,544965
10,"ANG MO KIO AVENUE 1, MAIN LOBBY ENTRANCE",1,1,1,1.365192,103.839287,569976
11,"3013 BEDOK INDUSTRIAL PARK E, PAVILION",1,1,1,1.335832,103.950687,489978
12,"51 NEW UPPER CHANGI ROAD, #01-1500",1,1,1,1.32341155,103.9421859,461051
13,"477A UPPER SERANGOON VIEW, LEVEL 1",1,1,1,1.37839515,103.9038506,531477
14,"218D BOON LAY AVE #01-309, DROP OFF AREA",1,1,1,1.350838,103.711962,640218
15,682A JURONG WEST CENTRAL 1 #01-104,1,1,1,1.3439763,103.705429,641682
16,260 BOON LAY DRIVE,1,1,1,1.34514715,103.7077904,640260
17,"674A JURONG WEST STREET 65, #01-66, VOID DECK",1,1,1,1.344664,103.70219,641674
18,"2A LORONG LEW LIAN, MULTI STOREY CARPARK, LEVEL 1",1,1,1,1.350828,103.875263,532002
19,"410 SERANGOON CENTRAL, #01-327",1,1,1,1.347733,103.873836,550410
20,"318 SERANGOON AVE 2, #01-324",1,1,1,1.352825,103.867271,550318
21,817A KEAT HONG LINK,1,1,1,1.3765823,103.7485809,682817
22,"991 BUANGKOK LINK, LEVEL 1",1,1,1,1.38431285,103.8821876,530991
23,"230 VICTORIA STREET, FOUNTAIN LOBBY",1,1,1,1.3001235,103.8560555,188024
24,4000 JALAN BUKIT MERAH,1,1,1,1.28518315,103.8158439,159465
25,"8 PENDING ROAD, MAIN LOBBY",1,1,1,1.37646455,103.7707235,678295
26,"108 BUKIT PURMEI ROAD, #01-129",1,1,1,1.273439,103.825383,90108
27,"1 JALAN ANAK BUKIT BUKIT TIMAH PLAZA, BUKIT TIMAH PLAZA, RESIDENTIAL BLOCK CARPARK",1,1,1,1.338465,103.778497,588996
28,"133 CANBERRA VIEW, LEVEL 1",1,1,1,1.4431568,103.830618,750133
29,"2 JURONG EAST CENTRAL 1, REAR ENTRANCE",1,1,1,1.333295558,103.7402075,609731
30,"4 TAMPINES CENTRAL 5, CUSTOMER SERVICE COUNTER",1,1,1,1.352482982,103.9448402,529510
31,"1 WOODLANDS SQUARE, MAIN ENTRANCE",1,1,1,1.436349,103.78577,738099
32,"298 TIONG BAHRU ROAD, COMMON CORRIDOR (LETTERBOX)",1,1,1,1.286153,103.826873,168730
33,"2 SIMEI STREET 3, CHANGI GENERAL HOSPITAL, B1 MAIN BUILDING LOBBY D",1,1,1,1.340446,103.949053,529889
34,"133 NEW BRIDGE ROAD, #06-01",1,1,1,1.28557,103.84626,59413
35,"51 HOUGANG AVENUE 9, MAIN LOBBY",1,1,1,1.3754634,103.8829357,538776
36,"810 GEYLANG RD, LEVEL 1",1,1,1,1.3147175,103.8934143,409286
37,"180 KITCHENER ROAD, B4 BESIDE TRAVELLATOR LOBBY",1,1,1,1.3112429,103.8565772,208539
38,"220 CLEMENTI AVENUE 4, MAIN ENTRANCE",1,1,1,1.318826,103.76828,129880
39,"24 RAFFLES PLACE, CLIFFORD CENTRE, LVL 3 CARPARK LOBBY",1,1,1,1.283856,103.85213,48621
40,"1 SENGKANG SQUARE, #B1-52/53, MRT EXIT/ENTRANCE",1,1,1,1.392580491,103.89525,545078
41,"201B COMPASSVALE DRIVE, COMPASSVALE SOUTHGATE RC, #01-545, VOID DECK",1,1,1,1.38850465,103.8940006,542201
42,"206C COMPASSVALE LANE, COMPASSVALE VILLA RC, VOID DECK",1,1,1,1.387103,103.897602,543206
43,"168 JALAN BUKIT MARAH, SURBANA ONE, LEVEL 1",1,1,1,1.333986,103.908618,150169
44,"18 CROSS STREET, B1 CUSTOMER SERVICE COUNTER",1,1,1,1.283521,103.84683,48423
45,"57 DAWSON RD, DAWSON PLACE",1,1,1,1.2925348,103.8113068,142057
46,"108 DEPOT ROAD, DEPOT HEIGHTS SHOPPING CENTRE",1,1,1,1.281131,103.810018,100108
47,"623 ELIAS ROAD, ELIAS MALL, MAIN ENTRANCE",1,1,1,1.3783709,103.9419858,510623
48,40 SCOTTS ROAD,1,1,1,1.306425,103.833472,228231
49,"180 BEDOK RESERVOIR ROAD, MAIN ENTRANCE",1,1,1,1.3324962,103.9152034,479220
50,"445 FAJAR ROAD, FAJAR SHOPPING CENTRE, COMMON CORRIDOR",1,1,1,1.383662,103.770611,670445
51,"4 QUEEN’S ROAD, FARRER GARDENS RC",1,1,1,1.3214969,103.8100945,260004
52,"260 ANG MO KIO STREET 21, #01-06",1,1,1,1.36877,103.834625,560260
53,"1 WOODLANDS STREET 31, FUCHUN CC, LIFT LOBBY",1,1,1,1.430892,103.775237,738581
54,"3 FUSIONOPOLIS WAY, BASEMENT 2 CONNEXIS",1,1,1,1.298851,103.787781,138633
55,"762 JURONG WEST STREET 75, GEK POH SHOPPING CENTRE, PRIME SUPERMARKET ENTRANCE",1,1,1,1.348860446,103.6977157,640762
56,"25 INTERNATIONAL BUSINESS PARK, MAIN LOBBY",1,1,1,1.325109,103.746559,609916
57,"524A JELAPANG ROAD, GREENRIDGE SHOPPING CENTRE, GROUND FLOOR - SECURITY COUNTER",1,1,1,1.385322,103.766139,671524
58,"7 WALLICH STREET, GUOCO TOWER, B2 ATRIUM BESIDE ESCALATOR (IN FRONT OF MRT)",1,1,1,1.276769,103.845044,78884
59,"1 MARITIME SQUARE, LOADING BAY",1,1,1,1.264646,103.820178,99253
60,"1 HARBOURFRONT PLACE, MAIN ENTRANCE",1,1,1,1.264895,103.819239,98633
61,"6 LORONG TOA PAYOH, HDB HUB, OPPOSITE OLD CHANG KEE",1,1,1,1.331641,103.848342,310480
62,"121 POTONG PASIR AVENUE, HDB-POTONG PASIR, MAIN ENTRANCE",1,1,1,1.3356302,103.8658411,350121
63,"11 OUTRAM ROAD, LEVEL 1",1,1,1,1.28033825,103.8384969,169078
64,"11 BEDOK NORTH STREET 1, MAIN ATRIUM",1,1,1,1.32697,103.932049,469662
65,"1 DEPOT CLOSE, HP ENTERPRISE",1,1,1,1.282556,103.805073,109841
66,"1 HILLVIEW RISE, HILLVIEW CC, MAIN LOBBY",1,1,1,1.3617966,103.7643092,667970
67,"30 BUKIT BATOK STREET 31, HONG KAH NORTH CC, REAR ENTRANCE",1,1,1,1.35925705,103.7495397,659440
68,"35 HOUGANG AVENUE 3, MAIN ENTRANCE",1,1,1,1.364714,103.892502,538840
69,"112 EAST COAST ROAD, I12 KATONG, B2 TRAVELLATOR",1,1,1,1.3052327,103.9050524,428802
70,"3 HARBOUR DRIVE, PASIR PANJANG TERMINAL BUILDING 3",1,1,1,1.2747835,103.7908516,117404
71,"2 JURONG EAST STREET 21, LOADING BAY",1,1,1,1.334771,103.746757,609601
72,"10 ANSON ROAD, INTERNATIONAL PLAZA, LEVEL 2 GREEN CORNER",1,1,1,1.276018,103.846338,79903
73,"2 ANG MO KIO DRIVE, ATRIUM LEVEL",1,1,1,1.3775869,103.8563216,567720
74,"10 SIMEI AVE, ITE COLLEGE EAST, #B1-14, ADMIN BUILDING LOBBY, CUSTOMER VISITOR CENTRE",1,1,1,1.334222,103.954912,486047
75,"1 CHOA CHU KANG GROVE, ITE COLLEGE WEST, BLOCK 1, LEVEL 3 FOOD CANOPY",1,1,1,1.375053,103.751737,688236
76,"8 JURONG WEST STREET 52, JURONG SPRING CC, LOBBY",1,1,1,1.3485581,103.7181642,649296
77,"385 BEACH ROAD, KAMPONG GLAM CC, MAIN LOBBY",1,1,1,1.30279215,103.8635784,199581
78,"3024A UBI RD 1, PAVILION",1,1,1,1.3298139,103.8960334,408718
79,"2 CHOA CHU KANG LOOP, KEAT HONG CC, WALKWAY CORRIDOR",1,1,1,1.383462,103.744855,689687
80,"ANG MO KIO AVENUE 4, GROUND FLOOR - OPPOSITE BURGER KING",1,1,1,1.373444,103.837183,569897
81,"27 SCIENCE DRIVE 1, KENT RIDGE CAMPUS, OUTSIDE LT27 AND LT29 STUDENT SPACE, LEVEL 1",1,1,1,1.2908147,103.7856493,117541
82,"12 KENT RIDGE CRES, KENT RIDGE CAMPUS, CENTRAL LIBRARY FORUM SPACE, LEVEL 1",1,1,1,1.296037429,103.7737615,119275
83,"809 FRENCH ROAD, KITCHENER COMPLEX, MAIN LOBBY",1,1,1,1.3085329,103.8620802,200808
84,400 LENGKOK BAHRU,1,1,1,1.2896453,103.8145145,159049
85,"21 CHOA CHU KANG AVE 4, WALKWAY BESIDE MCDONALD'S, WALKWAY BESIDE MACDONALD'S",1,1,1,1.38505675,103.7450277,689812
86,"259 PASIR RIS STREET 21, LOYANG POINT, MAIN LOBBY (ATM AREA)",1,1,1,1.367093,103.964772,510258
87,10 PASIR PANJANG ROAD,1,1,1,1.2741356,103.7998194,117438
88,"12 MARINA BOULEVARD, DROP-OFF DRIVEWAY",1,1,1,1.279032,103.854354,18982
89,"8A MARINA BOULEVARD, #B2-10, NEAR 7-11",1,1,1,1.2812488,103.8530087,18984
90,"278 MARINE PARADE ROAD, MARINE PARADE CC, MAIN ENTRANCE",1,1,1,1.305016,103.9097012,449282
91,"50 MARINE TERRACE, #01-265",1,1,1,1.304368,103.916146,440050
92,"SIN MING AVE, MAIN LOBBY",1,1,1,1.359337,103.830952,575738
93,"1500 BENDEMEER ROAD, MOM SERVICES CENTRE, LOBBY",1,1,1,1.321203,103.866892,339946
94,"512 THOMSON ROAD MSF BUILDING LOBBY, MAIN LOBBY",1,1,1,1.333708,103.839502,298136
95,"80 BENCOOLEN STREET, LEVEL 1 WING A, LIFT LOBBY",1,1,1,1.3001567,103.8516505,189655
96,"ANG MO KIO AVENUE 8, NANYANG POLYTECHNIC, BLOCK E (NORTH CANTEEN)",1,1,1,1.379530176,103.8492681,569830
97,"21 LIEN YING CHOW DRIVE, NANYANG TECHNOLOGICAL UNIVERSITY, HALL 6 BLOCK A",1,1,1,1.347655,103.687289,637296
98,"76 NANYANG DRIVE, SPIRAL STAIRCASE NEAR LECTURE THEATRE 1A",1,1,1,1.346903,103.680122,637331
99,"1 CLUNY ROAD, NATIONAL PARKS BOARD HQ, SINGAPORE BOTANIC GARDENS, NASSIM GATE INFO COUNTER",1,1,1,1.322437,103.815098,259569
100,"1 NORTHPOINT DRIVE NEE SOON CENTRAL COMMUNITY CLUB, NEE SOON CENTRAL CC, INSIDE NORTHPOINT CITY",1,1,1,1.4284,103.835915,768019
101,"1 YISHUN AVENUE 9, NEE SOON EAST CC, MAIN LOBBY",1,1,1,1.4304371,103.8385738,768893
102,"30 YISHUN STREET 81, NEE SOON SOUTH CC, VOID DECK (TEMPORARY) CC UNDERGOING RENOVATION",1,1,1,1.415072,103.834862,768455
103,"1 WEST COAST DRIVE, #01-111, LIFT LOBBY C",1,1,1,1.315946,103.75752,128020
104,"1 JURONG EAST STREET 21, NG TENG FONG GENERAL HOSPITAL, TOWER B, LEVEL 2",1,1,1,1.333426,103.745536,609606
105,"535 CLEMENTI ROAD, NGEE ANN POLYCLINIC, BLK 22, FOODCOURT",1,1,1,1.33318835,103.7746123,599489
106,"238 THOMSON ROAD, NOVENA SQUARE, LEVEL 3",1,1,1,1.3204058,103.8437628,307683
107,"1E KENT RIDGE ROAD, LEVEL 1",1,1,1,1.294272,103.778498,119228
108,"681 PUNGGOL DRIVE, OASIS TERRACES, LVL 1 OPPOSITE ANYTIME FITNESS",1,1,1,1.402853,103.913229,820681
109,"1 RAFFLES QUAY, #B2, ESCALATOR WALKWAY",1,1,1,1.281501,103.85216,48583
110,"1 TAMPINES WALK, CENTRAL PLAZA (LIBRARY EXIT)",1,1,1,1.35379,103.940887,528523
111,"735 PASIR RIS STREET 72, PASIR RIS WEST PLAZA, MAIN ENTRANCE",1,1,1,1.3792579,103.9361678,510735
112,"100 YUAN CHING RD, RECEPTION",1,1,1,1.339449,103.727213,618662
113,"11 RHU CROSS, MAIN ENTRANCE",1,1,1,1.29383,103.868033,437440
114,"207 HOUGANG STREET 21, MAIN ENTRANCE LOBBY",1,1,1,1.35779055,103.8861982,530207
115,"10 PAYA LEBAR ROAD, PAYA LEBAR QUARTER (PLQ), LEVEL 1",1,1,1,1.317775,103.8929956,409057
116,"60 PAYA LEBAR RD, PAYA LEBAR SQUARE, LEVEL 2 CARPARK BESIDE OFFICE LIFT LOBBY 1",1,1,1,1.319116,103.892482,409051
117,"116 HOUGANG AVENUE 1, PAYA LEBAR ZONE 5 RC, #01-1206, VOID DECK",1,1,1,1.3641729,103.8929828,530116
118,"5 PINE CLOSE, #01-141, VOID DECK",1,1,1,1.307171,103.882764,391005
119,"638 JURONG WEST STREET 61, PIONEER MALL, MAIN LOBBY NEAR MACDONALDS",1,1,1,1.341630892,103.6971605,640638
120,"653A JURONG WEST ST 61, PIONEER ZONE 12 RN, #01-422, VOID DECK",1,1,1,1.3368778,103.6966016,641653
121,"602 JURONG WEST ST 65, VOID DECK",1,1,1,1.339249,103.700331,640602
122,"6 POTONG PASIR AVENUE 2, CONSTITUENCY OFFICE",1,1,1,1.332562,103.867097,358361
123,"80 PUNGGOL FIELD, PUNGGOL 21 CC, MAIN LOBBY",1,1,1,1.393629,103.913505,828815
124,"204A PUNGGOL FIELD, PUNGGOL CLOVER RN, #01-288, VOID DECK",1,1,1,1.393629,103.913428,821204
125,"176C EDGEFIELD PLAINS, PUNGGOL OASIS RC, #01-569, VOID DECK",1,1,1,1.398318,103.908892,821175
126,"312B SUMANG LINK, #01-171",1,1,1,1.410931,103.901146,823312
127,"602 PUNGGOL CENTRAL, PUNGGOL VISTA CC, MAIN ENTRANCE",1,1,1,1.4032136,103.907333,820602
128,"259C PUNGGOL FIELD, PUNGGOL WEST CC, VOID DECK",1,1,1,1.4044862,103.8956952,823259
129,"365 COMMONWEALTH AVE, MAIN ENTRANCE",1,1,1,1.299221,103.801392,149732
130,252 NORTH BRIDGE RD,1,1,1,1.2938961,103.8533428,179103
131,"565 PASIR RIS ST 51, REPAIR KOPITIAM, VOID DECK",1,1,1,1.368961,103.950278,510565
132,"9 WOODLANDS AVENUE 9, REPUBLIC POLYTECHNIC, W3, LEVEL 3 FOODCOURT (UNDER RENOVATION)",1,1,1,1.4444,103.785082,738964
133,"8 SENTOSA GATEWAY, BESIDE DIN TAI FUNG RESTAURANT (#01-217)",1,1,1,1.258446,103.820349,98269
134,"55 NEWTON RD, LEVEL 2",1,1,1,1.3196822,103.8422527,307987
135,"180C RIVERVALE CRESCENT, RIVERVALE ARC RC, #01-367, VOID DECK",1,1,1,1.389595,103.909655,543180
136,"110 RIVERVALE WALK, RIVERVALE COURT RC, VOID DECK",1,1,1,1.383588,103.900008,540110
137,"118 RIVERVALE DRIVE, RIVERVALE PLAZA, MAIN LOBBY",1,1,1,1.3849113,103.9026609,540118
138,"135 RIVERVALE STREET, RIVERVALE SPRING RC, #01-730, VOID DECK",1,1,1,1.388297,103.905033,540135
139,"188B RIVERVALE DRIVE, RIVERVALE VISTA RC, 01-1076, VOID DECK",1,1,1,1.393203,103.902595,542188
140,"511 CANBERRA ROAD, SEMBAWANG MART, MAIN LOBBY",1,1,1,1.45394,103.81945,750511
141,"10 SERANGOON NORTH AVENUE 2, ATM LOBBY AREA",1,1,1,1.3754071,103.8692587,555877
142,"167 BEDOK SOUTH AVE 3, #01-501",1,1,1,1.319595,103.944949,460167
143,"71 BEDOK SOUTH ROAD, #01-250",1,1,1,1.3204138,103.9427324,460071
144,"1 ROCHOR CANAL RD, SIM LIM SQUARE, LOADING BAY",1,1,1,1.3030332,103.8530255,188504
145,"18 ROBINSON ROAD, #04-03",1,1,1,1.28237,103.850956,48547
146,"10 DOVER DRIVE, SIT @ DOVER, MAIN LOBBY",1,1,1,1.3003557,103.7799764,138683
147,753 CHOA CHU KANG NORTH 5,1,1,1,1.392344,103.746943,680753
148,"475 CHOA CHU KANG AVENUE 3, WALKWAY CORRIDOR",1,1,1,1.377693,103.739059,680475
149,"399 YUNG SHENG ROAD, TAMAN JURONG SHOPPING CENTRE, COMMON CORRIDOR",1,1,1,1.334493,103.7204337,610399
150,"13 TAMPINES STREET 11, MAIN ENTRANCE",1,1,1,1.342672,103.944982,529453
151,"285 TAMPINES STREET 22, TAMPINES CHANGKAT ZONE 4 RC, VOID DECK",1,1,1,1.34960715,103.9523487,520285
152,"124 TAMPINES STREET 11, TAMPINES CHANGKAT ZONE 5 RC, VOID DECK",1,1,1,1.34555415,103.9494425,521124
153,"364 TAMPINES STREET 34, TAMPINES CHANGKAT ZONE 8 RC, VOID DECK",1,1,1,1.35709885,103.9600754,520364
154,"730 TAMPINES STREET 71, TAMPINES COURTVIEW RC, VOID DECK",1,1,1,1.3566578,103.9334812,520730
155,"232 TAMPINES STREET 21, #01-639, VOID DECK",1,1,1,1.35637565,103.9486852,521232
156,"736 TAMPINES STREET 72, TAMPINES GREENVALE RC, VOID DECK",1,1,1,1.35894385,103.9343634,520736
157,"430 TAMPINES STREET 41, TAMPINES NORTH ZONE 3 RC, VOID DECK",1,1,1,1.35855,103.94772,520430
158,"880 TAMPINES AVENUE 8, TAMPINES SPRING RN, VOID DECK",1,1,1,1.3514349,103.9312397,520880
159,"842 TAMPINES STREET 82, TAMPINES VILLE RN, VOID DECK",1,1,1,1.35183125,103.935683,520842
160,101 CANTONMENT ROAD,1,1,1,1.276279,103.841571,89774
161,"861 ANG MO KIO AVENUE 10, REAR ENTRANCE",1,1,1,1.363,103.853574,569734
162,"450 TELOK BLANGAH STREET 31, TELOK BLANGAH CC, RECEPTION AREA",1,1,1,1.274858,103.807882,108943
163,"21 TAMPINES AVENUE 1, TEMASEK POLYTECHNIC, MAIN ENTRANCE FOYER",1,1,1,1.34585,103.930232,529757
164,"2 HANDY RD, THE CATHAY, LOADING BAY",1,1,1,1.2996984,103.8479449,229233
165,"176 ORCHARD ROAD, LEVEL 3",1,1,1,1.3014954,103.839658,238843
166,"200 TURF CLUB ROAD DBS THE GRANDSTAND, THE GRANDSTAND (TURF CITY), MAIN LOBBY CONCEIRGE",1,1,1,1.3382334,103.7934753,287994
167,"123 PENANG ROAD, THE REGENCY HOUSE, LEVEL 1",1,1,1,1.2994967,103.8420386,238465
168,45 MAXWELL RD,1,1,1,1.279502,103.84519,69118
169,"301 UPPER THOMSON ROAD, THOMSON PLAZA, MAIN ENTRANCE",1,1,1,1.3543366,103.8302338,574408
170,"93 TOA PAYOH CENTRAL, MAIN ENTRANCE",1,1,1,1.334712,103.850305,319194
171,"160 LORONG 6 TOA PAYOH, MAIN ENTRANCE",1,1,1,1.336272,103.854641,319380
172,"1999 LORONG 8 TOA PAYOH, MAIN ENTRANCE",1,1,1,1.334758,103.859412,319258
173,"122 LORONG 2 TOA PAYOH VIEW RC, READING CORNER",1,1,1,1.338692,103.853733,310122
174,"200 LORONG 2 TOA PAYOH, SIDE OF BUILDING",1,1,1,1.338692,103.853733,319642
175,"170 GHIM MOH ROAD, CORRIDOR WALKWAY",1,1,1,1.312053,103.789454,279621
176,"2 COLLEGE AVE WEST, UTOWN - STEPHEN RIADY CENTRE, LEVEL 1 IN FRONT OF WAACOW RESTAURANT",1,1,1,1.304459,103.772908,138607
177,"491 RIVER VALLEY ROAD, VALLEY POINT, #03-01",1,1,1,1.2930751,103.8267442,248371
178,"548 WOODLANDS DRIVE 44, LEVEL 1",1,1,1,1.431143,103.794183,730548
179,"2 CLEMENTI WEST STREET 2, WALKWAY CORRIDOR",1,1,1,1.302736,103.764985,129605
180,"1 JURONG WEST ST 71, SECURITY GUARD POST",1,1,1,1.341889,103.69627,642648
181,"300 WHAMPOA DRIVE, BESIDE CONSTITUENCY OFFICE",1,1,1,1.324815,103.857064,327737
182,"1 ENGKU AMAN TURN, CC OFFICE ENTRANCE",1,1,1,1.316622,103.896989,408528
183,"598 YISHUN RING RD, WISTERIA MALL, BASEMENT 1 CARGO LIFT LOBBY",1,1,1,1.434776,103.833318,768698
184,"353 WOODLANDS AVENUE 1, WOODGROVE CC, VOID DECK",1,1,1,1.43191065,103.7852973,730353
185,"1 WOODLANDS STREET 81, WOODLANDS CC, MAIN ENTRANCE LOBBY",1,1,1,1.4398453,103.7882337,738526
186,"31 WOODLANDS AVENUE 6, WOODLANDS GALAXY CC, CC OFFICE ENTRANCE",1,1,1,1.439042,103.802474,738991
187,"768 WOODLANDS AVENUE 6, WOODLANDS MART, MAIN LOBBY",1,1,1,1.445795,103.798106,730768
188,18 JALAN RASOK,1,1,1,1.416966,103.7583759,739633
189,"846 WOODLANDS AVENUE 4, WOODLANDS ZONE 2 RN, VOID DECK",1,1,1,1.44342885,103.7936915,730846
190,"876 WOODLANDS STREET 83, WOODLANDS ZONE 3 RN, VOID DECK",1,1,1,1.434235,103.77553,730876
191,"862 WOODLANDS STREET 83, WOODLANDS ZONE 4 RN, #01-184, VOID DECK",1,1,1,1.434235,103.77553,730862
192,"611 WOODLANDS RING ROAD, WOODLANDS ZONE 7 RN, VOID DECK",1,1,1,1.435922,103.80045,730611
193,"638 WOODLANDS RING ROAD, WOODLANDS ZONE 8 RN, VOID DECK",1,1,1,1.435922,103.80045,730638
194,"656 WOODLANDS RING ROAD, WOODLANDS ZONE 9 RN, VOID DECK",1,1,1,1.43655,103.79968,730656
195,"20 CHOA CHU KANG STREET 52, YEW TEE CC, MAIN ATRIUM",1,1,1,1.394771,103.744791,689286
196,"624 CHOA CHU KANG STREET 62, YEW TEE SQUARE, REAR ENTRANCE",1,1,1,1.3979868,103.7469021,680622
197,"50 ANG MO KIO STREET 61, MAIN LOBBY",1,1,1,1.3814042,103.841416,569163
198,"90 BOON LAY WAY, MAIN LOBBY",1,1,1,1.33987495,103.73712,609958
199,"30 HENG MUI KENG TERRACE, LEVEL 1",1,1,1,1.29116295,103.7769202,119614
200,"20 AH HOOD ROAD, ZHONGSHAN MALL",1,1,1,1.326825,103.846559,329984
201,"12 KALLANG AVE, APERIA, #01-47",1,0,1,1.3097138,103.8638367,339511
202,"230 VICTORIA STREET, BUGIS JUNCTION, #B1-17",1,0,1,1.3001235,103.8560555,188021
203,"501 BUKIT TIMAH ROAD, CLUNY COURT, #01-02",1,0,1,1.322572,103.8141527,259760
204,"1 SENGKANG SQUARE, COMPASS ONE, #B1-25",1,0,1,1.392511,103.894936,545078
205,"1 KIM SENG PROMENADE, GREAT WORLD CITY, #B1-18",1,0,1,1.293229,103.832146,237994
206,"1 FIFTH AVENUE, GUTHRIE HOUSE, #01-05",1,0,1,1.330632,103.795748,268802
207,"4 HILLVIEW RISE, HILLVIEW MARKET PLACE, #02-07",1,0,1,1.3629674,103.7644875,667979
208,"293 HOLLAND ROAD, JELITA SHOPPING CENTRE, #01-01",1,0,1,1.3174854,103.7858609,278628
209,"5 STADIUM WALK, KALLANG LEISURE PARK, #B1-01",1,0,1,1.302409,103.876353,397693
210,"5 STRAITS VIEW, #B2-15",1,0,1,1.276776,103.852511,18935
211,"238 THOMSON ROAD, NOVENA SQUARE, #01-28",1,0,1,1.3204058,103.8437628,307683
212,"1 FUSIONOPOLIS WAY, ONE NORTH, #B2-03",1,0,1,1.2994693,103.787506,138632
213,"290 ORCHARD ROAD, #B1-21",1,0,1,1.303663,103.835558,238859
214,"80 MARINE PARADE ROAD, #B1-84",1,0,1,1.301578,103.905439,449269
215,"68 ORCHARD ROAD, #B2-15",1,0,1,1.300005,103.844626,238839
216,"1 STAMFORD ROAD, RAFFLES CITY SHOPPING CENTRE, #B1-01",1,0,1,1.293275,103.853329,179103
217,"2 FIRST STREET, #01-05",1,0,1,1.312851,103.923649,458278
218,"163 TANGLIN ROAD, TANGLIN MALL, #B1-01",1,0,1,1.3048201,103.8238677,247933
219,"1 VISTA EXCHANGE GREEN, THE STAR VISTA, #B1-02",1,0,1,1.306952,103.788163,138617
220,"81 CLEMENCEAU AVENUE, UE SQUARE, #02-15",1,0,1,1.2920393,103.8425504,239917
221,"101 THOMSON ROAD, UNITED SQUARE, #B1-29",1,0,1,1.3172014,103.8438907,307591
222,"154 WEST COAST ROAD, WEST COAST PLAZA, #B1-19",1,0,1,1.303478,103.7658546,127371
223,"10 BUKIT BATOK CENTRAL, #01-08",1,0,1,1.3490572,103.7495906,659958
224,"100 TRAS ST, 100AM, #B1-01",1,0,1,1.2744387,103.8434532,79027
225,"111 SOMERSET RD, #01-21 TO 30",1,0,1,1.3002156,103.8374613,238164
226,"114 ALJUNIED AVE 2, #01-75",1,0,1,1.321782243,103.887211,380114
227,"135 JURONG GATEWAY RD, #01-337",1,0,1,1.3338574,103.7397672,600135
228,"140 TECK WHYE LANE, #01-351",1,0,1,1.37994,103.753104,680140
229,"166 BUKIT MERAH CENTRAL, #01-3531 & 02-3531",1,0,1,1.28291895,103.8175866,150166
230,"18 TAI SENG ST MAPLE TREE 18, #B1-13",1,0,1,1.336255518,103.888802,539775
231,"192 TOA PAYOH LOR 4, #01-670/672",1,0,1,1.331554,103.851024,310192
232,"202 HOUGANG ST 21, #01-00",1,0,1,1.35756,103.884137,530202
233,"212 BEDOK NTH ST 1, #01-147",1,0,1,1.326128444,103.9316184,460212
234,"28 DOVER CRESCENT, 28 DOVER CRESCENT, #01-83",1,0,1,1.30475945,103.7816941,130028
235,"29B CHAI CHEE AVENUE, #01-62",1,0,1,1.324307,103.923797,462029
236,"345 JURONG EAST ST 31, #01-29",1,0,1,1.3455358,103.7312649,600345
237,"355 SEMBAWANG WAY, #01-01",1,0,1,1.4494926,103.8186677,750355
238,"36 HOLLAND DR, #01-03/04/05",1,0,1,1.309243,103.792777,270036
239,"414 YISHUN RING RD, #01-185",1,0,1,1.4247726,103.8466172,760414
240,"451 CLEMENTI AVE 3, 451 AVE 3, #01-307",1,0,1,1.3127541,103.7657087,120451
241,"460 ALEXANDRA RD, 460 ALEXANDRA RD, #01-09 AND #01-16",1,0,1,1.273581,103.801395,119963
242,"475 TAMPINES ST 44, #01-145",1,0,1,1.36033435,103.9531026,520475
243,"5 UPPER BOON KENG RD, #01-05",1,0,1,1.3126684,103.8721363,80005
244,"50 HAVELOCK RD, 50 HAVELOCK RD, #01-755",1,0,1,1.289772,103.826828,160050
245,"500 LOR 6 TOA PAYOH, #B1-32/#01-33",1,0,1,1.330623,103.854287,310500
246,"502 WEST COAST DR, 502 WEST COAST DR, #01-41",1,0,1,1.31190435,103.7591763,120502
247,"51 UPPER SERANGOON RD, THE POIZ CENTRE, #01-30 TO 32, 41 TO 49",1,0,1,1.331436,103.868571,347697
248,"510 BISHAN ST 13, #01-520",1,0,1,1.348853,103.849777,570510
249,"511 CANBERRA RD, #02-03",1,0,1,1.45394,103.81945,750511
250,6 MARINE PARADE CENTRAL,1,0,1,1.301342,103.9071774,449411
251,612/620 GEYLANG LOR 38,1,0,1,1.314254,103.888574,389551
252,"63/66 YUNG KUANG RD, 66 YUNG KANG RD, #01-119 AND #02-119",1,0,1,1.332087,103.722429,610063
253,"71 KALLANG BAHRU, #01-529/#02-531",1,0,1,1.31364,103.863036,330071
254,"712 ANG MO KIO AVE 6, 712 ANG MO KIO, #01-4056",1,0,1,1.371469,103.8470492,560712
255,"80 LORONG LIMAU, #01-19",1,0,1,1.323904,103.855763,320080
256,"808 FRENCH RD #01-01, #01-01",1,0,1,1.308810144,103.8618219,200808
257,"849 YISHUN RING RD, #01-370",1,0,1,1.4169593,103.8353519,760849
258,"866A TAMPINES ST 83, #01-01",1,0,1,1.3553016,103.9342996,521866
259,"888 WOODLANDS DR 50, #01-757",1,0,1,1.437796,103.79528,730888
260,"311 NEW UPPER CHANGI RD, BEDOK MALL, #B2-60",1,0,1,1.32481115,103.9292544,467360
261,"221 BOON LAY PLACE, BOON LAY SHOPPING CENTRE, #02-200",1,0,1,1.34633675,103.7127614,640221
262,"1 JELEBU RD, BUKIT PANJANG PLAZA, #01-15 & #02-20",1,0,1,1.37956,103.7643061,677743
263,"1 JLN ANAK BUKIT, BUKIT TIMAH PLAZA, #B1-01 & #B2-01",1,0,1,1.3386426,103.7784798,588996
264,"133 CANBERRA VIEW, CANBERRA PLAZA, #B1-03/04",1,0,1,1.443223584,103.8305364,750133
265,"5 CHANGI BUSINESS PARK CENTRAL 1, CHANGI CITY POINT, #B1-09/10/11",1,0,1,1.334449,103.962887,486038
266,"133 NEW BRIDGE RD, CHINATOWN POINT, #B1-01",1,0,1,1.285849,103.84517,59413
267,"180 KITCHENER RD, CITY SQUARE MALL, #B1-09/10",1,0,1,1.3112429,103.8565772,208539
268,"277C COMPASSVALE LINK, #01-13",1,0,1,1.382304,103.893724,544277
269,"57 DAWSON RD, DAWSON PLACE, #01-07",1,0,1,1.2925348,103.8113068,142057
270,"108 DEPOT RD, DEPOT HEIGHTS SHOPPING CENTRE, #01-01",1,0,1,1.28115,103.810041,100108
271,"3 SIMEI ST 6, EASTPOINT, #05-01",1,0,1,1.34270712,103.9531058,528833
272,"17 PETIR RD, HILLION MALL, #B2-67",1,0,1,1.373792009,103.8084926,678278
273,"2 BUKIT BATOK WEST AVE 7, HOMETEAM NS BUKIT BATOK CLUBHOUSE, #01-10",1,0,1,1.365956,103.749974,659003
274,"90 HOUGANG AVE 10, HOUGANG MALL, #B1-07",1,0,1,1.37243,103.893756,538766
275,"2 JOO CHIAT RD, JOO CHIAT COMPLEX, #01-1139 / #02-1139",1,0,1,1.3157129,103.8987798,420002
276,"9 BISHAN PLACE, JUNCTION 8 SHOPPING CENTRE, #B1-01",1,0,1,1.350633,103.849014,579837
277,"1 JURONG WEST CENTRAL 2, JURONG POINT 1, #B1-09",1,0,1,1.33949635,103.705254,648886
278,"676 WOODLANDS DR 71, KAMPUND ADMIRALTY, #B1-02",1,0,1,1.439875,103.800494,730676
279,"100 HOUGANG AVE 10, KANG KAR MALL, #01-01/#02-01",1,0,1,1.3717185,103.894229,538767
280,"533 CHOA CHUA KANG ST 51, LIMBANG SHOPPING CENTRE, #01-11",1,0,1,1.392246,103.743077,680533
281,"21 CHOA CHU KANG AVE 4, LOT 1 SHOPPERS' MALL, #B1-03",1,0,1,1.38505675,103.7450277,689812
282,"71 WOODLANDS AVE 3, MARSLING MRT, #01-01",1,0,1,1.43264,103.77429,739044
283,"1 NORTHPOINT DRIVE, NORTHPOINT CITY, #B2-103 TO 107",1,0,1,1.4284,103.835915,768019
284,"1 LOWER KENT RIDGE RD, NUH MEDICAL CENTRE, #02-16",1,0,1,1.294066,103.784546,119082
285,"681 PUNGGOL DR, OASIS TERRACES, #B1-01",1,0,1,1.4027176,103.9132501,820681
286,"131 KILLINEY RD, ORCHARD GRAND COURT, #01-01/02/03",1,0,1,1.29735465,103.8384605,239571
287,"1 TAMPINES WALK, OUR TAMPINES HUB, #B1-01",1,0,1,1.35379,103.940887,528523
288,"734 PASIR RIS ST 72, PASIR RIS WEST PLAZA, #01-37",1,0,1,1.3796526,103.9365247,510734
289,"10 PAYA LEBAR RD, PAYA LEBAR QUARTER, #B2-09",1,0,1,1.3177085,103.8926094,409057
290,"168 PUNGGOL FIELD RD, PUNGGOL PLAZA, #03-01/02",1,0,1,1.39425115,103.9128346,820168
291,"11 RIVERVALE CRESCENT, RIVERVALE MALL, #03-01",1,0,1,1.39224515,103.9043778,545082
292,"118 RIVERVALE DR, RIVERVALE PLAZA, #01-08",1,0,1,1.3849113,103.9026609,540118
293,"6 SCOTTS RD, SCOTTS SQUARE, #B1-03 TO 07 AND #B1-10",1,0,1,1.306425,103.833472,228209
294,"33 SENGKANG WEST AVE, SELETAR MALL, #B2-24",1,0,1,1.391431,103.87608,797653
295,"628 SENJA RD, SENJA GRAND, #01-01",1,0,1,1.385167,103.760306,670628
296,"1 MAJU AVE, SERANGOON GARDEN VILLAGE, #B1-11",1,0,1,1.36512225,103.8650484,556679
297,"10 EUNOS RD 8, SINGPOST CENTRE #B1-101 TO 107",1,0,1,1.31885315,103.8936359,408600
298,"10 SINARAN DR, SQUARE 2, #04-46/47/48/49",1,0,1,1.320732,103.8444396,307506
299,"30 SEMBAWANG DRIVE, SUN PLAZA, #B1-01/02",1,0,1,1.4483136,103.8194642,757713
300,"399 YUNG SHENG RD, TAMAN JURONG SHOPPING CENTRE, #01-35",1,0,1,1.33478625,103.7201085,610399
301,"4 TAMPINES CENTRAL 5, TAMPINES MALL, #B1-12",1,0,1,1.352475,103.944728,529510
302,"1 TANJONG PAGAR PLAZA, #01-01",1,0,1,1.274899,103.8425428,82001
303,"3155 COMMONWEALTH AVENUE WEST, THE CLEMENTI MALL, #B1-12",1,0,1,1.315239,103.764556,129588
304,"301 UPPER THOMSON RD, THOMSON PLAZA, #03-37/38",1,0,1,1.3543366,103.8302338,574408
305,"1 PASIR RIS CENTRAL ST 3, WHITE SANDS, #B1-10",1,0,1,1.372292,103.949699,518457
306,"598 YISHUN RING RD, WISTERIA MALL, #01-01",1,0,1,1.434776,103.833318,768698
307,"900 SOUTH WOODLANDS DRIVE, WOODLANDS CIVIC CENTRE, #B1-01",1,0,1,1.4349069,103.7871926,730900
308,"61 CHOA CHU KANG DR, YEW TEE MRT STATION, #01-01",1,0,1,1.397461,103.747401,689715
309,"21 CHOA CHU KANG NORTH 6, YEW TEE POINT, #B1-01",1,0,1,1.397199,103.74683,689578
310,"301 YISHUN AVE 2, YISHUN MRT STATION, #01-02",1,0,1,1.429432,103.83497,769093
311,"20 AH HOOD RD, ZHONG SHAN PARK, #02-01",1,0,1,1.3268252,103.8465593,329984
312,"161 ANG MO KIO AVE 4, #01-504",1,0,1,1.374177,103.839535,560161
313,"348 BEDOK ROAD, #01-01",1,0,1,1.3312172,103.9483149,469560
314,"21 TAMPINES NORTH DRIVE 2, GIANT HYPERMART TAMPINES, #03-01",1,0,1,1.371907,103.932147,528765
315,"21 HOUGANG ST 51, #01-52",1,0,1,1.3792857,103.8878876,538719
316,"2 JURONG EAST STREET 21, #01-100",1,0,1,1.334771,103.746757,609601
317,"259 PASIR RIS ST 21, #01-27",1,0,1,1.3663512,103.9645143,510259
318,"638 JURONG WEST STREET 61, #03-01",1,0,1,1.341596,103.69716,640638
319,"604 SEMBAWANG ROAD, #B1-25",1,0,1,1.441726,103.825068,758459
320,"3 TEMASEK BOULEVARD, #B1-154",1,0,1,1.296193,103.858871,38983
321,"883 WOODLANDS STREET 82, #01-498",1,0,1,1.4425777,103.7908042,730883
322,"341 BALESTIER ROAD, #01-02",1,0,1,1.324171,103.85121,329773
323,"221 BOON LAY PLACE, BOON LAY SHOPPING COMPLEX, #02-164",1,0,1,1.346388,103.712233,640221
324,"2 TAMPINES CENTRAL 5, CENTURY SQAURE, #04-07 & 04-20/ 21",1,0,1,1.35231222,103.9439813,529509
325,"1 PASIR RIS CLOSE, E!HUB, #01-103",1,0,1,1.377054,103.954928,519599
326,"1 WOODLANDS ROAD, #02-02 TO 07",1,0,1,1.3803675,103.7601674,677899
327,"71 KALLANG BAHRU, #01-531",1,0,1,1.3209929,103.87039,330071
328,"11 TANJONG KATONG ROAD, KINEX, #03-29 to 34",1,0,1,1.3149651,103.894924,437157
329,"259 PASIR RIS STREET 21, #01-27, NEAR GIANT ENTRANCE",1,0,1,1.3663512,103.9645143,510259
330,"604 SEMBAWANG ROAD, SEMBAWANG SHOPPING CENTRE, #02-20/21",1,0,1,1.44174255,103.8248753,758459
331,"192 TOA PAYOH LOR 4, #02-674",1,0,1,1.330623,103.854287,310192
332,"3 GATEWAY DRIVE, WESTGATE, #03-46/47/48",1,0,1,1.334194,103.7428671,608532
333,"108 MCNAIR RD, #01-295",1,0,1,1.321693,103.859619,321108
334,"115 BEDOK NORTH ROAD, #01-319",1,0,1,1.3314328,103.9368825,460115
335,"122 ANG MO KIO AVE 3, #01-1753",1,0,1,1.370195,103.843417,560122
336,"154A BUKIT BATOK WEST AVE 8, #01-01",1,0,1,1.347456,103.743732,651154
337,"18 TECK WHYE LANE, #01-95",1,0,1,1.378373,103.754052,680018
338,"182 WOODLANDS ST 13, #01-01",1,0,1,1.4351831,103.7760015,730182
339,"19 SERANGOON NORTH AVE 5, #01-01",1,0,1,1.375742,103.871852,554913
340,"200 UPP THOMSON RD, #B1-01",1,0,1,1.35187,103.83607,574424
341,"200 WOODLANDS INDUSTRIAL PARK E7, #01-30",1,0,1,1.4507862,103.7968231,757177
342,"209 NEW UPPER CHANGI RD, #01-631, BESIDE MAIN ENTRANCE",1,0,1,1.3246093,103.9310335,460209
343,"231 SUMANG LANE, #01-02",1,0,1,1.4018757,103.8921304,820231
344,"233 ANG MO KIO AVE 3, #01-1168",1,0,1,1.367579,103.836733,560233
345,"25 GHIM MOH LINK, #01-11",1,0,1,1.30822,103.7864862,270025
346,"258 PASIR RIS ST 21, #02-10",1,0,1,1.3670929,103.9647716,510258
347,"292 BUKIT BATOK EAST AVENUE 6, #01-02",1,0,1,1.3444253,103.7548926,650292
348,"3 YUAN CHING RD, #01-01A/02",1,0,1,1.325866,103.724699,618642
349,"301 GEYLANG ROAD, #01-02",1,0,1,1.312721,103.878642,389344
350,"301 PUNGGOL CENTRAL, #01-01",1,0,1,1.4037905,103.9061683,820301
351,"301 WOODLANDS ST 31, #01-217",1,0,1,1.429493,103.775039,730301
352,"351 ANCHORVALE ROAD, #01-05",1,0,1,1.3932838,103.8866554,540351
353,"352 CLEMENTI AVE 2, #01-91",1,0,1,1.3146608,103.7713853,120352
354,"4 LORONG 7 TOA PAYOH, #01-107",1,0,1,1.339039,103.855403,310004
355,"4 WOODLANDS STREET 12, #02-61",1,0,1,1.429493,103.775039,738623
356,"420A CLEMENTI AVE 1, #01-01",1,0,1,1.3103063,103.7687543,121420
357,"455 SENGKANG WEST AVENUE, #01-16",1,0,1,1.391894,103.871457,790455
358,"506 TAMPINES CENTRAL 1, #01-361",1,0,1,1.3560351,103.9459129,520506
359,"52 CHIN SWEE RD, #01-25",1,0,1,1.286966,103.84167,160052
360,"539A BEDOK NORTH ST 3, #01-477",1,0,1,1.33242345,103.9255085,461539
361,"544 JURONG WEST ST 42, #01-97",1,0,1,1.352239,103.715901,640544
362,"573 WOODLANDS DRIVE 16, #02-01",1,0,1,1.43105185,103.7984822,730573
363,"61 TEBAN GARDENS RD, #01-21",1,0,1,1.3222065,103.7382286,600061
364,"623 ELIAS ROAD, #B1-01",1,0,1,1.37836,103.942018,510623
365,"675 YISHUN AVENUE 4, #01-10",1,0,1,1.4201172,103.8435501,760675
366,"7 JURONG WEST AVE 5, #01-01",1,0,1,1.3487508,103.7032901,649486
367,"739A BEDOK RESERVOIR RD, #01-01",1,0,1,1.3381024,103.9234133,471739
368,"785E WOODLANDS RISE, #01-01",1,0,1,1.4465419,103.805898,735785
369,"845 YISHUN STREET 81, #01-184",1,0,1,1.416025,103.834953,760845
370,"88 TANGLIN HALT ROAD, #01-10",1,0,1,1.301483,103.798503,141088
371,"925 YISHUN CENTRAL 1, #01-211",1,0,1,1.4279246,103.8373505,760925
372,"338 ANCHORVALE CRESCENT, #01-11",1,0,1,1.399254,103.889109,540338
373,"11 UPPER BOON KENG ROAD, #01-901",1,0,1,1.3142583,103.870917,380011
374,"440 BUKIT BATOK WEST AVE 8, #01-10",1,0,1,1.349727,103.740039,650440
375,"18B CIRCUIT ROAD, #01-260",1,0,1,1.329256,103.888455,372018
376,"85 DAWSON ROAD, #01-01",1,0,1,1.295354,103.809806,141085
377,"660A EDGEDALE PLAINS, #01-01",1,0,1,1.402634,103.916573,821660
378,"417 FERNVALE LINK, #01-11",1,0,1,1.391707,103.879945,790417
379,"473 FERVALE STREET, #01-06",1,0,1,1.39781,103.881713,790473
380,"1 WOODLANDS ROAD, JUNCTION 10, #01-07",1,0,1,1.3803675,103.7601674,677899
381,"18 YISHUN AVENUE 9, JUNCTION NINE, #02-06",1,0,1,1.4337382,103.8420651,768897
382,"202 MARSILING DRIVE, #01-138",1,0,1,1.442893,103.774871,730202
383,"1 JALAN BERSEH, #B1-02/22",1,0,1,1.307955,103.857212,209037
384,"527D PASIR RIS STREET 51, #01-01",1,0,1,1.36978545,103.9480767,514527
385,"6 POTONG PASIR AVENUE 2, LEVEL 1",1,0,1,1.3326372,103.8671892,358361
386,"547 SEGAR ROAD, #01-06",1,0,1,1.388159,103.770008,670547
387,"312A SUMANG LINK, #01-04",1,0,1,1.4110086,103.9003954,821312
388,872C TAMPINES STREET 86,1,0,1,1.35511155,103.9315802,523872
389,"150 NORTH BRIDGE ROAD, CITY HALL MRT STATION, #B1-01",1,0,1,1.293219,103.852181,179100
390,"8A MARINA BOULEVARD, #B2-44",1,0,0,1.279824,103.852925,18984
391,"16 ENGGOR STREET, #01-05",1,0,0,1.27452,103.844184,79717
392,"1 WOODLANDS SQUARE, #B1-31",1,0,0,1.436185,103.785816,738099
393,"442 ORCHARD ROAD, #B1-01",1,0,0,1.307669,103.828164,238879
394,"41 SUNSET WAY, #01-01A",1,0,0,1.32356,103.767703,597071
395,"430 UPPER CHANGI ROAD, #01-47",1,0,0,1.331824,103.9463,487048
396,"1 SELETAR ROAD, #01-11",1,0,0,1.3875539,103.8692488,807011
397,"1 MARITIME SQUARE, #01-47",1,0,0,1.264646,103.820178,99254
398,"205 HOUGANG STREET 21, #01-133",1,0,0,1.359397,103.885286,530205
399,"211 HOLLAND AVENUE, #01-02",1,0,0,1.3101598,103.7953924,278967
400,"23 SERANGOON CENTRAL, #B2-44",1,0,0,1.3507085,103.8725819,556083
401,"930 YISHUN AVE 2, #B1-06",1,0,0,1.429361,103.836035,769098
402,"896 DUNEARN ROAD, #02-01",1,0,0,1.336574,103.7833364,589472
403,"391A ORCHARD ROAD, #B2-01, NEAR CASHIER",1,0,0,1.3021406,103.8353196,238872
404,"10 TAMPINES CENTRAL 1, #B1-01",1,0,0,1.3540771,103.9450103,529536
405,464-484 UPPER BUKIT TIMAH ROAD,1,0,0,1.36236,103.767573,678077
406,"2 BAYFRONT AVENUE, #01-29",1,0,0,1.283342,103.857568,18972
407,"1 BUKIT BATOK CENTRAL LINK, #B1-01",1,0,0,1.3500765,103.7492566,658713
408,"750A CHAI CHEE ROAD, #01-01",1,0,0,1.32296095,103.9222616,469001
409,"180 KITCHENER RD, CITY SQUARE MALL, #02-03",1,0,0,1.3112429,103.8565772,208539
410,"1 JOO KOON CIRCLE, FAIRPRICE HUB, #02-21",1,0,0,1.326383,103.678539,629117
411,"407 NORTHSHORE DRIVE, #01-27",1,0,0,1.41727,103.9016903,820407
412,230 STADIUM BOULEVARD,1,0,0,1.3043937,103.8823325,397799
413,"176 ORCHARD ROAD, THE CENTREPOINT, #01-14",1,0,0,1.3014954,103.839658,238843
414,"107 TAMPINES ST 11, #01-353/355/357/359",1,0,0,1.348422,103.948328,521107
415,"12 ALEXANDRA VIEW, #01-18",1,0,0,1.29094,103.817046,158736
416,"152B SERANGOON NORTH AVE 1, #01-384",1,0,0,1.3723506,103.8738446,552152
417,"20 LENGKOK BAHRU, #01-13",1,0,0,1.286345,103.811253,159053
418,"253 SERANGOON CENTRAL DR, #01-241",1,0,0,1.354077,103.870808,550253
419,"279 BISHAN ST 24, #01-62/64",1,0,0,1.357275,103.843803,570279
420,"29A GHIM MOH LINK, #01-01",1,0,0,1.3085642,103.7847344,271029
421,4 BUKIT BATOK ST 41 #01-91/92,1,0,0,1.356036,103.740557,657991
422,"476 UPPER SERANGOON VIEW, #02-18",1,0,0,1.3774356,103.9036654,530476
423,"682 HOUGANG AVE 4, #01-310",1,0,0,1.3741199,103.885754,530682
424,"745 BEDOK RESERVOIR RD, #01-3015",1,0,0,1.3374017,103.9217793,470745
425,"587 BUKIT TIMAH RD #01-01 CORONATION PLAZA, #01-01",1,0,0,1.323702697,103.8101656,269707
426,"1 PASIR RIS CLOSE, E!HUB DOWNTOWN EAST, #02-127, #02-127",1,0,0,1.376175,103.955339,519599
427,"1 JOO KOON CIRCLE, FAIRPRICE HUB, LEVEL 3",1,0,0,1.3272083,103.6784809,629117
428,"107 NORTH BRIDGE RD #B1-10 FUNAN MALL, #B1-10",1,0,0,1.291179,103.850156,179105
429,"78 AIRPORT BOULEVARD, JEWEL CHANGI AIRPORT, #B2-205 TO 208",1,0,0,1.36062915,103.990222,819666
430,"30 EAST COAST RD, KATONG VILLAGE HOTEL, #01-06/07/08/09",1,0,0,1.30377,103.90291,428751
431,"2 SERANGOON RD, TEKKA PLACE, #B1-06/07/08/09",1,0,0,1.30459835,103.8521611,218227
432,"65 AIRPORT BOULEVARD, CHANGI AIRPORT TERMINAL 3, #B2-10",1,0,0,1.3562824,103.9863733,819663
433,"30 WOODLANDS AVE 1, THE WOODGROVE, #01-11",1,0,0,1.4291761,103.7812864,739065
434,"302 TIONG BAHRU ROAD, #B1-01",1,0,0,1.2862467,103.8279566,168732
435,"491 RIVER VALLEY ROAD, VALLEY POINT, #01-14",1,0,0,1.2930751,103.8267442,248371
436,"83 PUNGGOL CENTRAL, WATERWAY POINT, #B2-32",1,0,0,1.40697,103.901624,828761
437,"256 BANGKIT ROAD, #01-69",1,0,0,1.3789233,103.7728911,670256
438,"260 KIM KEAT AVENUE, #01-01",1,0,0,1.332158,103.857301,310260
439,"284 BUKIT BATOK EAST, #01-251",1,0,0,1.346701,103.757482,650284
440,"293 YISHUN STREET 22, #01-261",1,0,0,1.4365286,103.8375295,760293
441,"376 BUKIT BATOK ST 31, #01-116",1,0,0,1.35846,103.749749,650376
442,"418 YISHUN AVENUE 11, #01-433",1,0,0,1.425076,103.847349,760418
443,"440 PASIR RIS DRIVE 4, #01-01",1,0,0,1.369037,103.958601,510440
444,"525 ANG MO KIO AVE 10, #01-2401",1,0,0,1.37271,103.853925,560525
445,"622D PUNGGOL CENTRAL, #01-06",1,0,0,1.400497,103.9104547,824622
446,"982 BUANGKOK CRESCENT, #01-01",1,0,0,1.3809089,103.8792312,530982
447,"70 WOODLANDS AVE 7, #01-05",1,0,0,1.4403979,103.8005616,738344
448,"144 UPPER BUKIT TIMAH ROAD, #B1-01",1,0,0,1.3421799,103.7761711,588177
449,"524A JELAPANG ROAD, #03-13",1,0,0,1.38533355,103.7661744,671524
450,"512 BISHAN STREET 13, #01-524",1,0,0,1.3497162,103.8499272,570512
451,"291 JOO CHIAT RD, #01-01",1,0,0,1.3098863,103.902122,427543
452,"306 UBI AVE 1, KAMPUNG UBI, #01-85",1,0,0,1.3299202,103.9018922,400306
453,"201 YISHUN AVE 2, #01-03",1,0,0,1.4173597,103.8330179,618640
454,"266 SERANGOON CENTRAL DRIVE, #01-255",1,0,0,1.353302,103.871447,550266
455,"35 STUDENTS WALK, #01-01",1,0,0,1.3481032,103.6855222,639548
456,"475 CHOA CHU KANG AVE 3, #01-01",1,0,0,1.377961,103.73864,680475
457,"9 TAMPINES STREET 32, #01-16",1,0,0,1.3543836,103.9602606,529286
458,"548 WOODLANDS DRIVE 44, #01-37",1,0,0,1.431143,103.794183,730548
459,671 EDGEFIELD PLAINS,1,0,0,1.4035537,103.9088825,820671
460,"311 NEW UPPER CHANGI ROAD, BEDOK MALL, #B1-01/43/44, BASEMENT 1 MAIN ENTRANCE",1,0,0,1.32481115,103.9292544,467360
461,"109 NORTH BRIDGE ROAD, FUNAN, #03-16, IN-STORE",1,1,1,1.291407,103.849406,179097
462,"1 KIM SENG PROMENADE, GREAT WORLD CITY, #07-01",1,1,1,1.29345175,103.8319929,237994
463,"17 PETIR ROAD, HILLION MALL, #B1-65, BASEMENT 1",1,1,1,1.378305,103.762683,678278
464,"2 JURONG EAST STREET 21, IMM, #03-33, IN-STORE",1,1,1,1.334771,103.746757,609601
465,"9 BISHAN PLACE, JUNCTION 8 SHOPPING CENTRE, #03-02, IN-STORE",1,1,1,1.350559456,103.8487479,579837
466,"63 JURONG WEST CENTRAL 3, JURONG POINT, #B1-92, IN-STORE",1,1,1,1.339517,103.705726,648331
467,"391A ORCHARD ROAD, NGEE ANN CITY TOWER A, LEVEL 5",1,1,1,1.3025211,103.8353202,238873
468,"80 MARINE PARADE ROAD, PARKWAY PARADE, #03-29, IN-STORE",1,1,1,1.301736,103.904624,449269
469,"68 ORCHARD ROAD, PLAZA SINGAPURA, #03-39, BESIDE CASHIER COUNTER",1,1,1,1.3004414,103.8449028,238839
470,"3155 COMMONWEALTH AVENUE WEST, THE CLEMENTI MALL, #04-46/47/48/49, IN-STORE",1,1,1,1.315239,103.764556,129588
471,"1 HARBOURFRONT WALK, VIVOCITY, #02-07, IN-STORE CUSTOMER SERVICE COUNTER",1,1,1,1.2649338,103.8203564,98585
472,"83 PUNGGOL CENTRAL, WATERWAY POINT, EAST WING, MAIN ENTRANCE",1,1,1,1.403889,103.90723,828761
473,"135 JURONG GATEWAY ROAD, BUYER'S OFFICE",1,1,1,1.3338574,103.7397672,600135
474,"192 TOA PAYOH LORONG 4, BUYER'S OFFICE",1,1,1,1.331594523,103.8507407,310192
475,"510 TAMPINES CENTRAL 1, BUYER'S OFFICE",1,1,1,1.35319,103.943481,520510
476,"710A ANG MO KIO AVE 8, GROUND FLOOR - BUYER’S OFFICE",1,1,1,1.371048,103.848195,561710
477,"ANG MO KIO AVENUE 3, ANG MOH KIO HUB, #B1-58, OUTLET ENTRANCE",1,1,1,1.369424433,103.8483662,569933
478,"200 VICTORIA STREET, BUGIS JUNCTION, #B1-26, IN-STORE",1,1,1,1.299535,103.855849,188021
479,"200 VICTORIA STREET, BUGIS JUNCTION, #03-10E, IN-STORE",1,1,1,1.299535,103.855849,188021
480,"5 CHANGI BUSINESS PARK CENTRAL 1, CHANGI CITY POINT, #01-56, IN-STORE",1,1,1,1.33421,103.963124,486038
481,"3 SIMEI STREET 6, EASTPOINT MALL, #B1-08, IN-STORE",1,1,1,1.34270712,103.9531058,528833
482,"90 HOUGANG AVENUE 10, HOUGANG MALL, #02-13, IN-STORE",1,1,1,1.372448,103.893817,538766
483,"2 JURONG EAST STREET 21, IMM, #02-23, IN-STORE",1,1,1,1.334771,103.746757,609601
484,"50 JURONG GATEWAY ROAD, JEM, #04-01, IN-STORE",1,1,1,1.333801,103.743786,608549
485,"1 JURONG WEST CENTRAL 2, JURONG POINT, #B1-94, IN-STORE",1,1,1,1.33949635,103.705254,648886
486,"23 SERANGOON CENTRAL, NEX MALL, #03-33/34, IN-STORE",1,1,1,1.350483724,103.8726356,556083
487,"930 YISHUN AVE 2, #03-90/10",1,1,1,1.4292305,103.8357016,769098
488,"10 PAYA LEBAR ROAD, PAYA LEBAR QUARTER(PLQ), #04-01, IN-STORE",1,1,1,1.317603,103.892933,409057
489,"68 ORCHARD ROAD, PLAZA SINGAPURA, #04-12, IN-STORE",1,1,1,1.300258801,103.8450266,238839
490,"252 NORTH BRIDGE RD, #03-22/23",1,1,1,1.293561,103.853297,179103
491,"30 SEMBAWANG DRIVE, SUN PLAZA, #02-06, BACK OF STORE",1,1,1,1.448203,103.819545,757713
492,"10 TAMPINES CENTRAL 1, TAMPINES 1, #04-25, IN-STORE REPAIR COUNTER",1,1,1,1.354093,103.945171,529536
493,"302 TIONG BAHRU ROAD, TIONG BAHRU PLAZA, #03-19, IN-STORE",1,1,1,1.286247,103.827957,168732
494,"1 HARBOURFRONT WALK, VIVOCITY, #02-34, IN-STORE",1,1,1,1.2649338,103.8203564,98585
495,"460 TOA PAYOH LORONG 6, MAIN ENTRANCE",1,1,1,1.331962,103.849806,310460
496,"730 ANG MO KIO AVE 6, STORE REAR ENTRANCE",1,1,1,1.373525,103.845732,560730
497,"1 WOODLANDS SQUARE, CAUSEWAY POINT, #04-19/20, MAIN ENTRANCE",1,1,1,1.436349,103.78577,738099
498,"50 TAMPINES NORTH DRIVE 2, COURTS MEGASTORE, LEVEL 1 CASHIER AREA",1,1,1,1.362947,103.944055,528766
499,"3 SIMEI STREET 6, EASTPOINT MALL, #04-07, MAIN ENTRANCE",1,1,1,1.34281,103.95297,528833
500,"50 JURONG GATEWAY ROAD, JEM, #04-30, MAIN ENTRANCE",1,1,1,1.3332962,103.7433912,608549
501,"1 JURONG WEST CENTRAL, JURONG POINT, #02-05, MAIN ENTRANCE",1,1,1,1.33949635,103.705254,648886
502,"260 ORCHARD ROAD, THE HEEREN",1,1,1,1.302323,103.837462,238855
503,"8 CHANGI BUSINESS PARK AVE 1, #01-51 &, #02-51, LEVEL 2 BACK OF STORE",1,1,1,1.33513,103.96334,486018
504,"53 ANG MO KIO AVE 3, ANG MO KIO HUB, #B2-40, CASHIER EXIT AREA",1,1,1,1.369424433,103.8483662,569933
505,"1 HOUGANG ST 91, HOUGANG 1, #02-01, ESCALATOR WALKWAY",1,1,1,1.375730647,103.8794989,538692
506,"50 JURONG GATEWAY RD, JEM, #B1-21/22 & #B3-01, CASHIER AREA",1,1,1,1.3332962,103.7433912,608549
507,"63 JURONG WEST CENTRAL 3, JURONG POINT, #03-01, CASHIER AREA",1,1,1,1.339517,103.705726,648331
508,"1 STADIUM PLACE LEVEL 1 #01-29, CASHIER AREA",1,1,1,1.302784,103.87341,397628
509,"23 SERANGOON CENTRAL, NEX MALL, #03-42, IN-STORE",1,1,1,1.3507085,103.8725819,556083
510,"80 MARINE PARADE RD, PARKWAY PARADE, #03-28, CASHIER AREA",1,1,1,1.301736,103.904624,449269
511,"1 HARBOURFRONT WALK, VIVOCITY, #B2-23, IN-STORE CUSTOMER SERVICE COUNTER",1,1,1,1.2649338,103.8203564,98585
512,"8 ANG MO KIO INDUSTRIAL PARK 2, MAIN ENTRANCE",1,1,1,1.340719,103.949547,569500
513,"71 SUNGEI KADUT DRIVE, GAIN CITY MEGASTORE @ SUNGEI KADUT, LEVEL 1 LIFT LOBBY",1,1,1,1.4128385,103.7459916,729577
514,"6 RAFFLES BOULEVARD, MARINA SQUARE, #03 - 223 / 232, MAIN ENTRANCE",1,1,1,1.2909505,103.8589189,39594
515,"10 TAMPINES CENTRAL 1, TAMPINES 1, #B1-09, MAIN ENTRANCE",1,1,1,1.354125234,103.945111,529536
516,"799 NEW UPPER CHANGI ROAD, BEDOK POINT, #B1-01/02, #B-16/2 AND #B1-K1/K14",1,1,1,1.324952,103.932317,467351
517,"1 JELEBU ROAD, BUKIT PANJANG PLAZA, #03-06, SIDE ENTRANCE",1,1,1,1.37956,103.7643061,677743
518,"5 ANG MO KIO CENTRAL 3, DJITSUN MALL, #02-01/02, BESIDE CASHIER COUNTER",1,1,1,1.372842,103.847568,569663
519,"90 HOUGANG AVENUE 10, HOUGANG MALL, #04-15, IN-STORE",1,1,1,1.372448,103.893817,538766
520,"1 JURONG WEST CENTRAL 2, JURONG POINT, #03-37, IN-STORE",1,1,1,1.33949635,103.705254,648886
521,"9 RAFFLES BOULEVARD, MILLENIA WALK, #02-27, IN-STORE ATRIUM",1,1,1,1.292083,103.859414,39596
522,"930 YISHUN AVENUE 2, NORTHPOINT CITY, SOUTH WING, #B1-136/138, OUTLET ENTRANCE",1,1,1,1.429361,103.836035,769098
523,"80 MARINE PARADE ROAD, PARKWAY PARADE, #02-34, IN-STORE",1,1,1,1.301736,103.904624,449269
524,"33 SENGKANG WEST AVE, SELETAR MALL, #03-25, IN-STORE",1,1,1,1.391483256,103.8760528,797653
525,"3 TEMASEK BOULEVARD, SUNTEC CITY MALL, #01-634, IN-STORE",1,1,1,1.2961932,103.8588706,38983
526,"176 ORCHARD ROAD, THE CENTREPOINT, #03-31",1,1,1,1.3014954,103.839658,238843
527,"750B CHAI CHEE ROAD #01-01 TO 06, TO 12, #02-02 TO 06 BUSINESS PARK, #01-09, IN-STORE",1,1,1,1.3257,103.92189,469002
528,"1 BUKIT BATOK CENTRAL LINK, WEST MALL, #03-06 TO 09, IN-STORE WALKWAY",1,1,1,1.350218,103.749397,658713
529,"3 GATEWAY DRIVE, WESTGATE, #B1-32, IN-STORE",1,1,1,1.33427,103.743241,608532
530,"107 NORTH BRIDGE ROAD, FUNAN MALL, #03-19/20, IN-STORE",1,1,1,1.29137,103.850054,179105
531,"5 STADIUM WALK, KALLANG LEISURE PARK, #01-46-50, STORE REAR ENTRANCE",1,1,1,1.302339625,103.8761261,397693
532,"101 THOMSON ROAD, UNITED SQUARE, #B1-56D/E, MAIN ENTRANCE",1,1,1,1.3172014,103.8438907,307591
533,145 SYED ALWI ROAD,1,1,1,1.310532,103.855,207704
534,"231 BRAS BASAH COMPLEX, #04-23/ 33",1,1,1,1.296785154,103.853601,180231
535,"118 ALJUNIED AVE 2, #01-100, MAIN ENTRANCE",1,1,1,1.32002885,103.8876361,380118
536,"451 BUKIT BATOK WEST AVENUE 6, #01-10, COMMON CORRIDOR",1,1,1,1.3530084,103.744077,650451
537,"602A TAMPINES AVENUE 9, #01-01, MAIN ENTRANCE",1,1,1,1.36101195,103.9374319,521602
538,"720 CLEMENTI WEST ST 2, #01-144, COMMON CORRIDOR",1,1,1,1.3024615,103.7637523,120720
539,"105 CANBERRA ST, EAST BROOK @ CANBERRA, #02-05, COMMON CORRIDOR",1,1,1,1.448890288,103.8323741,750105
540,"2 ANG MO KIO DRIVE, #A1-12, NEAR ENTRANCE, BESIDE CHECK IN AREA",1,1,1,1.3775869,103.8563216,567720
541,"31B EXETER ROAD, COMCENTRE",1,1,1,1.299044,103.838162,239733
542,"68 ORCHARD ROAD, PLAZA SINGAPURA, #01-36, IN-STORE",1,1,1,1.300258801,103.8450266,238839
543,"4 TAMPINES CENTRAL 5, TAMPINES CENTRAL, #02-27, IN-STORE",1,1,1,1.352482982,103.9448402,529510
544,"181 TOA PAYOH LORONG 4, #01-602",1,1,1,1.333635,103.850976,310181
545,"60 PAYA LEBAR ROAD, #B1-01",1,0,1,1.3191162,103.8924825,409051
546,"768 WOODLANDS AVENUE 6, #01-33",1,0,1,1.4457952,103.7981059,730768
547,"78 AIRPORT BOULEVARD, JEWEL, #02-234",1,0,1,1.36062915,103.990222,819666
548,"2 BAYFRONT AVENUE, Marina Bay Sands, B2-06",1,1,0,1.285582,103.860111,18972
549,"270 ORCHARD ROAD, APPLE ORCHARD",1,1,0,1.303105,103.836202,238857
550,"80 MIDDLE ROAD, BUGIS JUNCTION, #01-81",1,1,0,1.2983823,103.8548923,188966
551,"1 WOODLANDS SQUARE, CAUSEWAY POINT, #03-01",1,1,0,1.436455,103.78609,738099
552,"2 JURONG EAST STREET 21, IMM, #01-53",1,1,0,1.334611,103.7467494,609601
553,"23 SERANGOON CENTRAL, NEX, #B1-56",1,1,0,1.3507085,103.8725819,556083
554,"1 RAFFLES PLACE, ONE RAFFLES PLACE, #02-25",1,1,0,1.2846053,103.8511104,48616
555,"80 MARINE PARADE ROAD, PARKWAY PARADE, #02-24",1,1,0,1.301736,103.904624,449269
556,"178B - 180A ORCHARD ROAD, PERANAKAN PLACE COMPLEX",1,1,0,1.301386,103.839265,238845
557,"4 TAMPINES CENTRAL 5, TAMPINES MALL, #03-01",1,1,0,1.352475,103.944728,529510
558,"1 BUKIT BATOK CENTRAL LINK, WEST MALL, #01-16",1,1,0,1.350218,103.749397,658713
559,"101 THOMSON ROAD, UNITED SQUARE, #B1-56/56A",1,1,0,1.31725795,103.8436009,307591
560,"311 NEW UPPER CHANGI ROAD, BEDOK MALL, #B2-02/35/36",1,1,0,1.32481115,103.9292544,467360
561,"1 JELEBU ROAD, BUKIT PANJANG PLAZA, #03-01",1,1,0,1.37956,103.7643061,677743
562,"1 JALAN ANAK BUKIT, BUKIT TIMAH PLAZA, #01-16",1,1,0,1.3386426,103.7784798,588996
563,"1 WOODLANDS SQUARE, CAUSEWAY POINT, #03-29/30",1,1,0,1.436455,103.78609,738099
564,"3155 COMMONWEALTH AVENUE WEST, CLEMENTI MALL, #05-01 TO 05",1,1,0,1.3154877,103.764576,129588
565,"1 SENG KANG SQUARE, COMPASS ONE, #03-11",1,1,0,1.3920337,103.8949527,545078
566,"3 SIMEI STREET 6, EASTPOINT MALL, #03-23",1,1,0,1.3424679,103.9528535,528833
567,"530 TOA PAYOH LOR 6, HDB HUB, #02-01",1,1,0,1.332356,103.847577,310530
568,"205 HOUGANG STREET 21, HEARTLAND MALL - KOVAN, #03-00",1,1,0,1.359397,103.885286,530205
569,"90 HOUGANG AVENUE, HOUGANG MALL, #03-15",1,1,0,1.3725735,103.8937879,538766
570,"9 BISHAN PLACE, JUNCTION 8, #04-02A",1,1,0,1.350633,103.849014,579837
571,"1 JURONG WEST CENTRAL 2, JURONG POINT, #B1-41",1,1,0,1.33949635,103.705254,648886
572,"21 CHOA CHU KANG AVENUE 4, LOT ONE, #03-13",1,1,0,1.38505675,103.7450277,689812
573,"86 MARINE PARADE CENTRAL, #02-101/102",1,1,0,1.30428,103.906769,440086
574,"23 SERANGOON CENTRAL, NEX MALL, #04-59/60",1,1,0,1.350573,103.872173,556083
575,"930 YISHUN AVENUE 2, NORTHPOINT CITY, #03-12",1,1,0,1.4282062,103.836264,769098
576,"681 PUNGGOL DRIVE, OASIS TERRACES, #03-15/16",1,1,0,1.4027176,103.9132501,820681
577,"80 MARINE PARADE ROAD, PARKWAY PARADE, #B-70/71",1,1,0,1.301736,103.904624,449269
578,"10 PAYA LEBAR ROAD, PAYA LEBAR QUARTER, #03-01/02/03",1,1,0,1.317775,103.8929956,409057
579,"33 SENGKANG WEST AVENUE, SELETAR MALL, #03-06 TO 09",1,1,0,1.391431,103.87608,797653
580,"4 TAMPINES CENTRAL 5, TAMPINES MALL, #03-17",1,1,0,1.352475,103.944728,529510
581,"302 TIONG BAHRU ROAD, TIONG BAHRU PLAZA, #03-115",1,1,0,1.2862467,103.8279566,168732
582,"101 THOMSON ROAD, UNITED SQUARE, #02-22/25",1,1,0,1.31725795,103.8436009,307591
583,"1 HARBOURFRONT WALK, VIVOCITY, #B1-16/17",1,1,0,1.264934,103.820356,98585
584,"1 BUKIT BATOK CENTRAL LINK, WEST MALL, #04-02",1,1,0,1.350218,103.749397,658713
585,"3 GATEWAY DRIVE, WESTGATE, #04-26/27",1,1,0,1.334194,103.7428671,608532
586,"1 PASIR RIS CENTRAL STREET 3, WHITE SANDS, #04-12/13",1,1,0,1.3723844,103.9497206,518457
587,"313 ORCHARD ROAD, 313 SOMERSET, #02-28",1,1,0,1.3008267,103.8385644,238895
588,"23 SERANGOON CENTRAL, NEX, #03-21",1,1,0,1.3507085,103.8725819,556083
589,"435 ORCHARD ROAD, WISMA ATRIA, #03-01",1,1,0,1.30369665,103.8332876,238877
590,"68 ORCHARD ROAD, STARHUB @ PLAZA SINGAPURA, #01-36, IN-STORE",1,1,0,1.300005,103.844626,238839
591,"4 TAMPINES CENTRAL 5, STARHUB @ TAMPINES, #02-27, IN-STORE",1,1,0,1.352943,103.942794,529510
592,"107 NORTH BRIDGE ROAD, FUNAN, #03-01",1,1,1,1.291313,103.8499471,179105
593,"21 CHOA CHU KANG AVE 4, LOT ONE, #03-01",1,1,1,1.38505675,103.7450277,689812
594,"205 UPPER BUKIT TIMAH ROAD, SIM LIAN BUILDING",1,1,1,1.3445606,103.7740314,588181
595,"4 TAMPINES CENTRAL 5, TAMPINES MALL, #03-16/16A",1,1,1,1.352475,103.944728,529510
